COSMOS 2426 (717)       
1 29671U 06062B   19310.39223387 -.00000008  00000-0  10000-3 0  9993
2 29671  65.0580 275.4828 0020701 179.1605  10.7682  2.12961953100122
COSMOS 2433 (720)       
1 32275U 07052A   19310.02652087 -.00000084  00000-0  10000-3 0  9994
2 32275  65.9057  36.4033 0003769 223.2820  71.9129  2.13104458 93623
COSMOS 2432 (719)       
1 32276U 07052B   19309.39245574 -.00000083  00000-0  10000-3 0  9991
2 32276  65.9201  36.5116 0008759 325.8586 153.6457  2.13103647 93610
COSMOS 2434 (721)       
1 32393U 07065A   19310.10244616 -.00000008  00000-0  00000+0 0  9994
2 32393  64.6634 274.1181 0001383 148.5044  92.3470  2.13102992 92337
COSMOS 2436 (723)       
1 32395U 07065C   19310.45075071 -.00000010  00000-0  10000-3 0  9999
2 32395  64.6722 274.1585 0014778 330.1874 256.0260  2.13280906 92278
COSMOS 2456 (730)       
1 36111U 09070A   19310.03376981  .00000074  00000-0  00000+0 0  9999
2 36111  64.2037 153.7734 0002909 344.7418  16.7183  2.13102948 77007
COSMOS 2457 (733)       
1 36112U 09070B   19310.31658282  .00000078  00000-0  00000+0 0  9992
2 36112  64.1896 153.6624 0006440 149.4792 193.3021  2.13101536 77001
COSMOS 2459 (731)       
1 36400U 10007A   19309.70009523 -.00000085  00000-0  10000-3 0  9997
2 36400  65.8111  35.4146 0023833 349.6985 269.9137  2.13102042 75344
COSMOS 2461 (735)       
1 36401U 10007B   19310.41315907 -.00000084  00000-0  10000-3 0  9993
2 36401  65.8029  35.3614 0006236  80.2958 276.8619  2.13101918 75352
COSMOS 2460 (732)       
1 36402U 10007C   19309.39209281 -.00000085  00000-0  10000-3 0  9997
2 36402  65.7935  35.3575 0001892 182.9685 150.4364  2.13101391 75331
COSMOS 2464 (736)       
1 37139U 10041C   19310.24576265 -.00000010  00000-0  00000+0 0  9991
2 37139  64.2634 273.6649 0024763   5.8657 210.1791  2.13100672 71427
COSMOS 2474 (742)       
1 37829U 11055A   19310.18293465  .00000075  00000-0  00000+0 0  9994
2 37829  64.5293 154.6992 0008081 242.1475  89.5017  2.13101888 62996
COSMOS 2476 (744)       
1 37867U 11064A   19309.64207986  .00000068  00000-0  00000+0 0  9990
2 37867  64.5059 154.7657 0017699 234.8336  88.0719  2.13101947 62333
COSMOS 2477 (745)       
1 37868U 11064B   19309.90794135  .00000071  00000-0  00000+0 0  9991
2 37868  64.5162 154.8115 0015200 236.0892 109.4002  2.13101846 62292
COSMOS 2475 (743)       
1 37869U 11064C   19309.97756777  .00000072  00000-0  00000+0 0  9990
2 37869  64.5232 154.8077 0018920 261.6278  94.5103  2.13102082 62303
COSMOS 2485 (747)       
1 39155U 13019A   19309.63204808  .00000067  00000-0  00000-0 0  9993
2 39155  64.6767 154.9870 0018162 229.8342 130.0581  2.13101971 50810
COSMOS 2492 (754)       
1 39620U 14012A   19310.43280554 -.00000084  00000-0  10000-3 0  9990
2 39620  65.6845  35.1363 0012114 321.1581 328.1314  2.13103327 43772
COSMOS 2500 (755)       
1 40001U 14032A   19309.63235516 -.00000085  00000-0  00000-0 0  9992
2 40001  65.6249  35.0959 0008063 200.0344  56.2647  2.13102513 41979
COSMOS 2501 (702K)      
1 40315U 14075A   19310.31272177 -.00000010  00000-0  00000+0 0  9995
2 40315  63.9833 274.6907 0017288 212.0782   2.9595  2.13098516 38398
COSMOS 2514 (751)       
1 41330U 16008A   19309.65950503 -.00000085  00000-0  00000+0 0  9994
2 41330  65.4278  35.0228 0011465 210.3835 248.7219  2.13103019 29143
COSMOS 2516 (753)       
1 41554U 16032A   19310.45135231 -.00000011  00000-0  00000+0 0  9991
2 41554  64.2065 274.6930 0014478 224.9735  12.2106  2.13101749 26762
COSMOS 2522 (752)       
1 42939U 17055A   19309.70317922 -.00000005  00000-0  00000+0 0  9993
2 42939  64.4386 274.8343 0009856 250.4901 359.2354  2.13102003 16505
COSMOS 2527 (756)       
1 43508U 18053A   19309.74696398  .00000070  00000-0  00000-0 0  9998
2 43508  64.8372 154.7861 0005933 219.2410  95.5583  2.13102654 10799
COSMOS 2529 (757)       
1 43687U 18086A   19310.24389368 -.00000008  00000-0  00000+0 0  9996
2 43687  64.6516 274.8744 0012338 269.7670 350.4529  2.13102047  7823
COSMOS 2534 (758)       
1 44299U 19030A   19310.04440997 -.00000007  00000-0  00000+0 0  9999
2 44299  64.7203 274.6761 0015289 285.4589 316.8881  2.13101908  3464
